     2              NAVIGATION DATA                         RINEX VERSION / TYPE
CCRINEXN V1.6.0 UX  CDDIS               15-MAY-20 19:31     PGM / RUN BY / DATE 
IGS BROADCAST EPHEMERIS FILE                                COMMENT             
    0.7451D-08  0.2235D-07 -0.5960D-07 -0.1192D-06          ION ALPHA           
    0.8602D+05  0.8192D+05 -0.1311D+06 -0.5243D+06          ION BETA            
   -0.279396772385D-08-0.355271367880D-14   503808     2105 DELTA-UTC: A0,A1,T,W
    18                                                      LEAP SECONDS        
                                                            END OF HEADER       
18 20  5 14 12  0  0.0 0.189284794033D-03 0.121644916362D-10 0.000000000000D+00
    0.720000000000D+02-0.272187500000D+02 0.446304304651D-08-0.263269576484D+01
   -0.133365392685D-05 0.651706475765D-03 0.439397990704D-05 0.515434131241D+04
    0.388800000000D+06 0.242143869400D-07-0.294217512483D+01-0.353902578354D-07
    0.963876114749D+00 0.296125000000D+03 0.284596085920D+01-0.817784063989D-08
    0.105361531588D-09 0.100000000000D+01 0.210500000000D+04 0.000000000000D+00
    0.200000000000D+01 0.000000000000D+00-0.791624188423D-08 0.840000000000D+03
    0.387078000000D+06 0.400000000000D+01 0.000000000000D+00 0.000000000000D+00
19 20  5 14 12  0  0.0-0.158950220794D-03 0.511590769747D-11 0.000000000000D+00
    0.330000000000D+02 0.302187500000D+02 0.395016463983D-08 0.178356610197D+01
    0.126287341118D-05 0.942478072829D-02 0.665150582790D-05 0.515368729782D+04
    0.388800000000D+06 0.119209289551D-06 0.237226206178D+01-0.182539224625D-06
    0.982175552194D+00 0.260375000000D+03 0.161147493203D+01-0.781139686268D-08
   -0.817891240845D-10 0.100000000000D+01 0.210500000000D+04 0.000000000000D+00
    0.200000000000D+01 0.000000000000D+00-0.153668224812D-07 0.330000000000D+02
    0.381600000000D+06 0.000000000000D+00 0.000000000000D+00 0.000000000000D+00
20 20  5 14 12  0  0.0 0.527697149664D-03-0.113686837722D-12 0.000000000000D+00
    0.250000000000D+02-0.730312500000D+02 0.504056710271D-08 0.279724109067D+01
   -0.373832881451D-05 0.510738091543D-02 0.673532485962D-05 0.515364685822D+04
    0.388800000000D+06-0.447034835815D-07-0.205271416079D+01 0.100582838059D-06
    0.933695408184D+00 0.230656250000D+03 0.265918321183D+01-0.828570227562D-08
    0.614311302817D-10 0.100000000000D+01 0.210500000000D+04 0.000000000000D+00
    0.200000000000D+01 0.000000000000D+00-0.884756445885D-08 0.250000000000D+02
    0.381618000000D+06 0.400000000000D+01 0.000000000000D+00 0.000000000000D+00
21 20  5 14 12  0  0.0-0.154459849000D-05 0.500222085975D-11 0.000000000000D+00
    0.610000000000D+02-0.249062500000D+02 0.467305179422D-08 0.147003061727D+01
   -0.177323818207D-05 0.239513525739D-01 0.372156500816D-05 0.515515106773D+04
    0.388800000000D+06 0.363215804100D-06-0.303334498121D+01-0.558793544769D-06
    0.953246875290D+00 0.300843750000D+03-0.132943430345D+01-0.825320092180D-08
    0.928610108910D-10 0.100000000000D+01 0.210500000000D+04 0.000000000000D+00
    0.200000000000D+01 0.000000000000D+00-0.102445483208D-07 0.610000000000D+02
    0.384096000000D+06 0.400000000000D+01 0.000000000000D+00 0.000000000000D+00
22 20  5 14 12  0  0.0-0.782331451774D-03 0.125055521494D-11 0.000000000000D+00
    0.590000000000D+02-0.815937500000D+02 0.511271296502D-08-0.166344922662D+01
   -0.398419797421D-05 0.720291421749D-02 0.734627246857D-05 0.515350587845D+04
    0.388800000000D+06-0.670552253723D-07-0.200521102808D+01 0.149011611938D-06
    0.930365382390D+00 0.222406250000D+03-0.116836230940D+01-0.841785063727D-08
    0.122147945095D-09 0.100000000000D+01 0.210500000000D+04 0.000000000000D+00
    0.200000000000D+01 0.000000000000D+00-0.181607902050D-07 0.590000000000D+02
    0.381618000000D+06 0.400000000000D+01 0.000000000000D+00 0.000000000000D+00
23 20  5 14 12  0  0.0-0.114291906357D-03 0.306954461848D-11 0.000000000000D+00
    0.420000000000D+02-0.141875000000D+02 0.492091926175D-08-0.276736200271D+01
   -0.107102096081D-05 0.142220975831D-01 0.926479697228D-05 0.515514982987D+04
    0.388800000000D+06 0.240281224251D-06-0.896273176667D+00-0.223517417908D-06
    0.943366762532D+00 0.191031250000D+03-0.219112327895D+01-0.791711549392D-08
    0.337514058815D-09 0.100000000000D+01 0.210500000000D+04 0.000000000000D+00
    0.200000000000D+01 0.630000000000D+02-0.204890966415D-07 0.420000000000D+02
    0.381625000000D+06 0.400000000000D+01 0.000000000000D+00 0.000000000000D+00
24 20  5 14 12  0  0.0-0.129989348352D-04-0.454747350886D-12 0.000000000000D+00
    0.490000000000D+02 0.309375000000D+02 0.536200906349D-08-0.272354116939D+01
    0.144354999065D-05 0.964944250882D-02 0.653788447380D-05 0.515365108871D+04
    0.388800000000D+06 0.391155481338D-07 0.114144292854D+00-0.266358256340D-06
    0.936881280957D+00 0.240218750000D+03 0.667926141531D+00-0.830320300459D-08
    0.121433629627D-10 0.100000000000D+01 0.210500000000D+04 0.000000000000D+00
    0.200000000000D+01 0.000000000000D+00 0.279396772385D-08 0.490000000000D+02
    0.381618000000D+06 0.400000000000D+01 0.000000000000D+00 0.000000000000D+00
25 20  5 14 12  0  0.0 0.398838892579D-05 0.306954461848D-11 0.000000000000D+00
    0.420000000000D+02 0.265625000000D+02 0.444339937113D-08 0.170453888550D+01
    0.120885670185D-05 0.925611564890D-02 0.784546136856D-05 0.515355236053D+04
    0.388800000000D+06-0.221654772759D-06 0.122314331034D+01-0.409781932831D-07
    0.965678808718D+00 0.233031250000D+03 0.930627758210D+00-0.798640409436D-08
   -0.344300055765D-09 0.100000000000D+01 0.210500000000D+04 0.000000000000D+00
    0.200000000000D+01 0.000000000000D+00 0.558793544769D-08 0.420000000000D+02
    0.381618000000D+06 0.400000000000D+01 0.000000000000D+00 0.000000000000D+00
26 20  5 14 12  0  0.0 0.206197611988D-03 0.716227077646D-11 0.000000000000D+00
    0.570000000000D+02 0.283125000000D+02 0.495556356197D-08 0.103131579995D+01
    0.168383121491D-05 0.474268652033D-02 0.746361911297D-05 0.515361600304D+04
    0.388800000000D+06 0.763684511185D-07 0.118807808708D+01 0.745058059692D-08
    0.946789067736D+00 0.224593750000D+03 0.227967333286D+00-0.827641617453D-08
   -0.465376527657D-09 0.100000000000D+01 0.210500000000D+04 0.000000000000D+00
    0.200000000000D+01 0.000000000000D+00 0.698491930962D-08 0.570000000000D+02
    0.381618000000D+06 0.400000000000D+01 0.000000000000D+00 0.000000000000D+00
27 20  5 14 12  0  0.0-0.293388031423D-03-0.102318153950D-10 0.000000000000D+00
    0.390000000000D+02 0.542187500000D+02 0.402266756025D-08-0.817887524390D+00
    0.273250043392D-05 0.827952986583D-02 0.682659447193D-05 0.515366662979D+04
    0.388800000000D+06 0.204890966415D-06 0.226828593903D+01 0.894069671631D-07
    0.978088540902D+00 0.257500000000D+03 0.557714589406D+00-0.798461830569D-08
   -0.871464871438D-10 0.100000000000D+01 0.210500000000D+04 0.000000000000D+00
    0.200000000000D+01 0.000000000000D+00 0.186264514923D-08 0.390000000000D+02
    0.381618000000D+06 0.400000000000D+01 0.000000000000D+00 0.000000000000D+00
28 20  5 14 12  0  0.0 0.717506278306D-03-0.329691829393D-11 0.000000000000D+00
    0.360000000000D+02 0.220312500000D+02 0.429410743824D-08-0.660517387486D-01
    0.127404928207D-05 0.184330251068D-01 0.799633562565D-05 0.515366685867D+04
    0.388800000000D+06-0.281259417534D-06 0.131456252549D+01-0.838190317154D-07
    0.977557823481D+00 0.239093750000D+03-0.140710214133D+01-0.824034324337D-08
   -0.342514267094D-09 0.100000000000D+01 0.210500000000D+04 0.000000000000D+00
    0.280000000000D+01 0.000000000000D+00-0.111758708954D-07 0.360000000000D+02
    0.381618000000D+06 0.400000000000D+01 0.000000000000D+00 0.000000000000D+00
29 20  5 14 12  0  0.0-0.104083213955D-03-0.886757334229D-11 0.000000000000D+00
    0.120000000000D+02 0.449062500000D+02 0.384658879729D-08-0.415569264779D+00
    0.232458114624D-05 0.145040487405D-02 0.637955963612D-05 0.515358661842D+04
    0.388800000000D+06-0.856816768646D-07 0.233833965842D+01 0.428408384323D-07
    0.985635480726D+00 0.270218750000D+03 0.190602272022D+01-0.778853870961D-08
   -0.325013538118D-10 0.100000000000D+01 0.210500000000D+04 0.000000000000D+00
    0.200000000000D+01 0.000000000000D+00-0.977888703346D-08 0.120000000000D+02
    0.381618000000D+06 0.400000000000D+01 0.000000000000D+00 0.000000000000D+00
30 20  5 14 12  0  0.0-0.219849403948D-03-0.818545231596D-11 0.000000000000D+00
    0.890000000000D+02 0.316875000000D+02 0.536379474170D-08 0.256360392140D+01
    0.172294676304D-05 0.458186108153D-02 0.658631324768D-05 0.515364660835D+04
    0.388800000000D+06-0.143423676491D-06 0.208897951815D+00-0.223517417908D-07
    0.938932723665D+00 0.244437500000D+03-0.288044518695D+01-0.833534752331D-08
    0.150006240068D-10 0.100000000000D+01 0.210500000000D+04 0.000000000000D+00
    0.200000000000D+01 0.000000000000D+00 0.372529029846D-08 0.890000000000D+02
    0.381600000000D+06 0.000000000000D+00 0.000000000000D+00 0.000000000000D+00
31 20  5 14 12  0  0.0-0.422992743552D-04-0.250111042988D-11 0.000000000000D+00
    0.930000000000D+02 0.257500000000D+02 0.495734935064D-08 0.222245345438D+01
    0.145658850670D-05 0.952217821032D-02 0.706873834133D-05 0.515356844711D+04
    0.388800000000D+06-0.193715095520D-06 0.201536466117D+00 0.176951289177D-06
    0.958048953624D+00 0.244218750000D+03 0.130982036682D+00-0.810390898891D-08
   -0.853606984729D-10 0.100000000000D+01 0.210500000000D+04 0.000000000000D+00
    0.280000000000D+01 0.000000000000D+00-0.130385160446D-07 0.930000000000D+02
    0.381618000000D+06 0.400000000000D+01 0.000000000000D+00 0.000000000000D+00
